[{"OBJECT_NAME":"SUOMI-100","OBJECT_ID":"2018-099AY","EPOCH":"2026-03-09T16:23:06.300384","MEAN_MOTION":15.25995383,"ECCENTRICITY":0.00089691,"INCLINATION":97.4315,"RA_OF_ASC_NODE":129.5602,"ARG_OF_PERICENTER":269.9465,"MEAN_ANOMALY":90.0745,"EPHEMERIS_TYPE":0,"CLASSIFICATION_TYPE":"U","NORAD_CAT_ID":43804,"ELEMENT_SET_NO":999,"REV_AT_EPOCH":39823,"BSTAR":0.00054773118,"MEAN_MOTION_DOT":0.00014037,"MEAN_MOTION_DDOT":0},{"OBJECT_NAME":"STARLINK-30860","OBJECT_ID":"2023-171E","EPOCH":"2026-03-09T23:15:38.981952","MEAN_MOTION":15.26739072,"ECCENTRICITY":8.784e-5,"INCLINATION":42.9992,"RA_OF_ASC_NODE":283.106,"ARG_OF_PERICENTER":218.8643,"MEAN_ANOMALY":141.2145,"EPHEMERIS_TYPE":0,"CLASSIFICATION_TYPE":"U","NORAD_CAT_ID":58234,"ELEMENT_SET_NO":999,"REV_AT_EPOCH":12978,"BSTAR":6.833614e-6,"MEAN_MOTION_DOT":-7.6e-7,"MEAN_MOTION_DDOT":0}]
